STARLINK-36653          
1 67842U 26033X   26071.25001157 -.01937364  00000+0 -14310-1 0  9992
2 67842  42.9992 255.6661 0001600 263.6203 336.1293 15.75407592  5078
STARLINK-36589          
1 67843U 26033Y   26071.25001157 -.01941892  00000+0 -13693-1 0  9997
2 67843  42.9992 255.6419 0001508 258.7973 350.7343 15.76455812  5073
STARLINK-36598          
1 67844U 26033Z   26071.25001157 -.01977304  00000+0 -15738-1 0  9997
2 67844  42.9993 255.6810 0001604 262.3825 331.4679 15.73236753  5070
STARLINK-36606          
1 67845U 26033AA  26070.88677101  .00371919  00000+0  16737-2 0  9992
2 67845  42.9991 257.8119 0005501 294.2343  65.7954 15.82263886  4972
STARLINK-36658          
1 67846U 26033AB  26071.25001157 -.01973483  00000+0 -15393-1 0  9990
2 67846  42.9993 255.6507 0001559 266.8476 338.9517 15.73695084  5074
STARLINK-36618          
1 67847U 26033AC  26071.00002315  .00339721  51206-4  10280-2 0  9999
2 67847  42.9805 254.6857 0001793 295.2337 230.0205 15.91347873  5038
STARLINK-36660          
1 67848U 26033AD  26071.25001157 -.01973017  00000+0 -16384-1 0  9996
2 67848  42.9997 255.6680 0001562 263.1301 335.6347 15.72248587  5079
STARLINK-36602          
1 67849U 26033AE  26071.25001157 -.01975645  00000+0 -16004-1 0  9995
2 67849  42.9992 255.6452 0001636 261.4749 346.2839 15.72827227  5079
STARLINK-36840          
1 67850U 26034A   26071.26040892  .00310804  00000+0  15153-2 0  9990
2 67850  53.1580 198.4744 0000868  42.6245 317.4845 15.80971597  4347
STARLINK-36348          
1 67851U 26034B   26071.25966006  .00259321  00000+0  12741-2 0  9990
2 67851  53.1581 198.4689 0000576 103.8795 256.2292 15.80944585  4346
STARLINK-36276          
1 67852U 26034C   26071.25891204  .00239445  00000+0  11800-2 0  9998
2 67852  53.1584 198.4642 0000725  61.8891 298.2205 15.80934347  4340
STARLINK-36785          
1 67853U 26034D   26071.25816192  .00219546  00000+0  10850-2 0  9996
2 67853  53.1584 198.4590 0000953  63.3585 296.7536 15.80929470  4344
STARLINK-36608          
1 67854U 26034E   26071.25741147  .00291581  00000+0  14255-2 0  9996
2 67854  53.1585 198.4537 0000633  80.8709 279.2385 15.80964492  4334
STARLINK-36838          
1 67855U 26034F   26071.25666274  .00342746  00000+0  16639-2 0  9992
2 67855  53.1581 198.4479 0000997  52.3516 307.7597 15.80978145  4342
STARLINK-36843          
1 67856U 26034G   26071.25516020  .00288239  00000+0  14106-2 0  9999
2 67856  53.1581 198.4384 0000756  36.6189 323.4886 15.80950662  4342
STARLINK-36828          
1 67857U 26034H   26071.25591152  .00327392  00000+0  15933-2 0  9992
2 67857  53.1580 198.4435 0000806  50.2347 309.8747 15.80965526  4342
