[{"OBJECT_NAME":"STARLINK-36653","OBJECT_ID":"2026-033X","EPOCH":"2026-03-12T06:00:00.999648","MEAN_MOTION":15.75407592,"ECCENTRICITY":0.00016001,"INCLINATION":42.9992,"RA_OF_ASC_NODE":255.6661,"ARG_OF_PERICENTER":263.6203,"MEAN_ANOMALY":336.1293,"EPHEMERIS_TYPE":0,"CLASSIFICATION_TYPE":"U","NORAD_CAT_ID":67842,"ELEMENT_SET_NO":999,"REV_AT_EPOCH":507,"BSTAR":-0.01430966,"MEAN_MOTION_DOT":-0.01937364,"MEAN_MOTION_DDOT":0},{"OBJECT_NAME":"STARLINK-36589","OBJECT_ID":"2026-033Y","EPOCH":"2026-03-12T06:00:00.999648","MEAN_MOTION":15.76455812,"ECCENTRICITY":0.00015081,"INCLINATION":42.9992,"RA_OF_ASC_NODE":255.6419,"ARG_OF_PERICENTER":258.7973,"MEAN_ANOMALY":350.7343,"EPHEMERIS_TYPE":0,"CLASSIFICATION_TYPE":"U","NORAD_CAT_ID":67843,"ELEMENT_SET_NO":999,"REV_AT_EPOCH":507,"BSTAR":-0.013693165,"MEAN_MOTION_DOT":-0.01941892,"MEAN_MOTION_DDOT":0},{"OBJECT_NAME":"STARLINK-36598","OBJECT_ID":"2026-033Z","EPOCH":"2026-03-12T06:00:00.999648","MEAN_MOTION":15.73236753,"ECCENTRICITY":0.00016048,"INCLINATION":42.9993,"RA_OF_ASC_NODE":255.681,"ARG_OF_PERICENTER":262.3825,"MEAN_ANOMALY":331.4679,"EPHEMERIS_TYPE":0,"CLASSIFICATION_TYPE":"U","NORAD_CAT_ID":67844,"ELEMENT_SET_NO":999,"REV_AT_EPOCH":507,"BSTAR":-0.015737523,"MEAN_MOTION_DOT":-0.01977304,"MEAN_MOTION_DDOT":0},{"OBJECT_NAME":"STARLINK-36606","OBJECT_ID":"2026-033AA","EPOCH":"2026-03-11T21:16:57.015264","MEAN_MOTION":15.82263886,"ECCENTRICITY":0.0005501,"INCLINATION":42.9991,"RA_OF_ASC_NODE":257.8119,"ARG_OF_PERICENTER":294.2343,"MEAN_ANOMALY":65.7954,"EPHEMERIS_TYPE":0,"CLASSIFICATION_TYPE":"U","NORAD_CAT_ID":67845,"ELEMENT_SET_NO":999,"REV_AT_EPOCH":497,"BSTAR":0.0016737,"MEAN_MOTION_DOT":0.00371919,"MEAN_MOTION_DDOT":0},{"OBJECT_NAME":"STARLINK-36658","OBJECT_ID":"2026-033AB","EPOCH":"2026-03-12T06:00:00.999648","MEAN_MOTION":15.73695084,"ECCENTRICITY":0.00015594,"INCLINATION":42.9993,"RA_OF_ASC_NODE":255.6507,"ARG_OF_PERICENTER":266.8476,"MEAN_ANOMALY":338.9517,"EPHEMERIS_TYPE":0,"CLASSIFICATION_TYPE":"U","NORAD_CAT_ID":67846,"ELEMENT_SET_NO":999,"REV_AT_EPOCH":507,"BSTAR":-0.015393353,"MEAN_MOTION_DOT":-0.01973483,"MEAN_MOTION_DDOT":0},{"OBJECT_NAME":"STARLINK-36618","OBJECT_ID":"2026-033AC","EPOCH":"2026-03-12T00:00:02.000160","MEAN_MOTION":15.91347873,"ECCENTRICITY":0.00017933,"INCLINATION":42.9805,"RA_OF_ASC_NODE":254.6857,"ARG_OF_PERICENTER":295.2337,"MEAN_ANOMALY":230.0205,"EPHEMERIS_TYPE":0,"CLASSIFICATION_TYPE":"U","NORAD_CAT_ID":67847,"ELEMENT_SET_NO":999,"REV_AT_EPOCH":503,"BSTAR":0.0010280191,"MEAN_MOTION_DOT":0.00339721,"MEAN_MOTION_DDOT":5.1206226e-5},{"OBJECT_NAME":"STARLINK-36660","OBJECT_ID":"2026-033AD","EPOCH":"2026-03-12T06:00:00.999648","MEAN_MOTION":15.72248587,"ECCENTRICITY":0.00015623,"INCLINATION":42.9997,"RA_OF_ASC_NODE":255.668,"ARG_OF_PERICENTER":263.1301,"MEAN_ANOMALY":335.6347,"EPHEMERIS_TYPE":0,"CLASSIFICATION_TYPE":"U","NORAD_CAT_ID":67848,"ELEMENT_SET_NO":999,"REV_AT_EPOCH":507,"BSTAR":-0.016384358,"MEAN_MOTION_DOT":-0.01973017,"MEAN_MOTION_DDOT":0},{"OBJECT_NAME":"STARLINK-36602","OBJECT_ID":"2026-033AE","EPOCH":"2026-03-12T06:00:00.999648","MEAN_MOTION":15.72827227,"ECCENTRICITY":0.00016364,"INCLINATION":42.9992,"RA_OF_ASC_NODE":255.6452,"ARG_OF_PERICENTER":261.4749,"MEAN_ANOMALY":346.2839,"EPHEMERIS_TYPE":0,"CLASSIFICATION_TYPE":"U","NORAD_CAT_ID":67849,"ELEMENT_SET_NO":999,"REV_AT_EPOCH":507,"BSTAR":-0.016003904,"MEAN_MOTION_DOT":-0.01975645,"MEAN_MOTION_DDOT":0},{"OBJECT_NAME":"STARLINK-36840","OBJECT_ID":"2026-034A","EPOCH":"2026-03-12T06:14:59.330688","MEAN_MOTION":15.80971597,"ECCENTRICITY":8.681e-5,"INCLINATION":53.158,"RA_OF_ASC_NODE":198.4744,"ARG_OF_PERICENTER":42.6245,"MEAN_ANOMALY":317.4845,"EPHEMERIS_TYPE":0,"CLASSIFICATION_TYPE":"U","NORAD_CAT_ID":67850,"ELEMENT_SET_NO":999,"REV_AT_EPOCH":434,"BSTAR":0.0015153064,"MEAN_MOTION_DOT":0.00310804,"MEAN_MOTION_DDOT":0},{"OBJECT_NAME":"STARLINK-36348","OBJECT_ID":"2026-034B","EPOCH":"2026-03-12T06:13:54.629184","MEAN_MOTION":15.80944585,"ECCENTRICITY":5.762e-5,"INCLINATION":53.1581,"RA_OF_ASC_NODE":198.4689,"ARG_OF_PERICENTER":103.8795,"MEAN_ANOMALY":256.2292,"EPHEMERIS_TYPE":0,"CLASSIFICATION_TYPE":"U","NORAD_CAT_ID":67851,"ELEMENT_SET_NO":999,"REV_AT_EPOCH":434,"BSTAR":0.0012740804,"MEAN_MOTION_DOT":0.00259321,"MEAN_MOTION_DDOT":0},{"OBJECT_NAME":"STARLINK-36276","OBJECT_ID":"2026-034C","EPOCH":"2026-03-12T06:12:50.000256","MEAN_MOTION":15.80934347,"ECCENTRICITY":7.25e-5,"INCLINATION":53.1584,"RA_OF_ASC_NODE":198.4642,"ARG_OF_PERICENTER":61.8891,"MEAN_ANOMALY":298.2205,"EPHEMERIS_TYPE":0,"CLASSIFICATION_TYPE":"U","NORAD_CAT_ID":67852,"ELEMENT_SET_NO":999,"REV_AT_EPOCH":434,"BSTAR":0.0011799981,"MEAN_MOTION_DOT":0.00239445,"MEAN_MOTION_DDOT":0},{"OBJECT_NAME":"STARLINK-36785","OBJECT_ID":"2026-034D","EPOCH":"2026-03-12T06:11:45.189888","MEAN_MOTION":15.8092947,"ECCENTRICITY":9.538e-5,"INCLINATION":53.1584,"RA_OF_ASC_NODE":198.459,"ARG_OF_PERICENTER":63.3585,"MEAN_ANOMALY":296.7536,"EPHEMERIS_TYPE":0,"CLASSIFICATION_TYPE":"U","NORAD_CAT_ID":67853,"ELEMENT_SET_NO":999,"REV_AT_EPOCH":434,"BSTAR":0.0010849925,"MEAN_MOTION_DOT":0.00219546,"MEAN_MOTION_DDOT":0},{"OBJECT_NAME":"STARLINK-36608","OBJECT_ID":"2026-034E","EPOCH":"2026-03-12T06:10:40.351008","MEAN_MOTION":15.80964492,"ECCENTRICITY":6.338e-5,"INCLINATION":53.1585,"RA_OF_ASC_NODE":198.4537,"ARG_OF_PERICENTER":80.8709,"MEAN_ANOMALY":279.2385,"EPHEMERIS_TYPE":0,"CLASSIFICATION_TYPE":"U","NORAD_CAT_ID":67854,"ELEMENT_SET_NO":999,"REV_AT_EPOCH":433,"BSTAR":0.0014254501,"MEAN_MOTION_DOT":0.00291581,"MEAN_MOTION_DDOT":0},{"OBJECT_NAME":"STARLINK-36838","OBJECT_ID":"2026-034F","EPOCH":"2026-03-12T06:09:35.660736","MEAN_MOTION":15.80978145,"ECCENTRICITY":9.975e-5,"INCLINATION":53.1581,"RA_OF_ASC_NODE":198.4479,"ARG_OF_PERICENTER":52.3516,"MEAN_ANOMALY":307.7597,"EPHEMERIS_TYPE":0,"CLASSIFICATION_TYPE":"U","NORAD_CAT_ID":67855,"ELEMENT_SET_NO":999,"REV_AT_EPOCH":434,"BSTAR":0.0016639494,"MEAN_MOTION_DOT":0.00342746,"MEAN_MOTION_DDOT":0},{"OBJECT_NAME":"STARLINK-36843","OBJECT_ID":"2026-034G","EPOCH":"2026-03-12T06:07:25.841280","MEAN_MOTION":15.80950662,"ECCENTRICITY":7.569e-5,"INCLINATION":53.1581,"RA_OF_ASC_NODE":198.4384,"ARG_OF_PERICENTER":36.6189,"MEAN_ANOMALY":323.4886,"EPHEMERIS_TYPE":0,"CLASSIFICATION_TYPE":"U","NORAD_CAT_ID":67856,"ELEMENT_SET_NO":999,"REV_AT_EPOCH":434,"BSTAR":0.0014106095,"MEAN_MOTION_DOT":0.00288239,"MEAN_MOTION_DDOT":0},{"OBJECT_NAME":"STARLINK-36828","OBJECT_ID":"2026-034H","EPOCH":"2026-03-12T06:08:30.755328","MEAN_MOTION":15.80965526,"ECCENTRICITY":8.061e-5,"INCLINATION":53.158,"RA_OF_ASC_NODE":198.4435,"ARG_OF_PERICENTER":50.2347,"MEAN_ANOMALY":309.8747,"EPHEMERIS_TYPE":0,"CLASSIFICATION_TYPE":"U","NORAD_CAT_ID":67857,"ELEMENT_SET_NO":999,"REV_AT_EPOCH":434,"BSTAR":0.0015933338,"MEAN_MOTION_DOT":0.00327392,"MEAN_MOTION_DDOT":0}]
